1 29155U 06018A   12281.30303397 -.00000257  00000-0  10000-3 0  2496
2 29155 000.1170 116.9689 0002936 032.9910 260.5227 01.00264199 23378